STARLINK-3251           
1 49729U 21115F   26079.48972170 -.00002337  00000+0 -12879-3 0  9999
2 49729  53.2165 110.5220 0001245 112.6876 247.4248 15.08834195237028
STARLINK-3249           
1 49730U 21115G   26079.52656409 -.00000311  00000+0 -14464-5 0  9994
2 49730  53.2165 110.6644 0001347  79.3946 280.7197 15.08835020237022
STARLINK-3246           
1 49732U 21115J   26079.79888294 -.00000242  00000+0  28916-5 0  9993
2 49732  53.2171 109.4052 0001293  84.6058 275.5081 15.08836831237062
STARLINK-3252           
1 49733U 21115K   26079.77678118  .00000630  00000+0  57669-4 0  9990
2 49733  53.2169 109.3482 0001304  81.1261 278.9879 15.08837913237061
STARLINK-3238           
1 49734U 21115L   26079.33241923  .00000142  00000+0  27026-4 0  9995
2 49734  53.2167 101.3697 0001319  82.3242 277.7899 15.08840989237143
STARLINK-3113           
1 49735U 21115M   26079.76940842 -.00000567  00000+0 -17545-4 0  9997
2 49735  53.2169 109.2668 0001286  89.3479 270.7661 15.08837696237065
STARLINK-3148           
1 49736U 21115N   26079.32872384  .00000099  00000+0  24328-4 0  9990
2 49736  53.2166 101.2454 0001300  88.4050 271.7091 15.08842292237145
STARLINK-3225           
1 49737U 21115P   26079.46859260  .00000717  00000+0  63142-4 0  9998
2 49737  53.2164 100.7323 0001163  82.8067 277.3058 15.08834290237162
STARLINK-3143           
1 49738U 21115Q   26079.76027449  .00001413  00000+0  10686-3 0  9996
2 49738  53.2164  99.6273 0001326  82.6487 277.4655 15.08845150237204
STARLINK-3155           
1 49739U 21115R   26079.78782539  .00000196  00000+0  30379-4 0  9996
2 49739  53.2161 109.2994 0001227  86.6611 273.4522 15.08837155237062
STARLINK-3226           
1 49740U 21115S   26079.35174875 -.00017419  00000+0 -10769-2 0  9996
2 49740  53.2165 101.2270 0001209  61.0534 299.0579 15.08910455237148
STARLINK-3244           
1 49741U 21115T   26079.74553449 -.00000182  00000+0  66619-5 0  9994
2 49741  53.2165  99.4992 0001242  83.0686 277.0448 15.08838730237200
STARLINK-3202           
1 49742U 21115U   26079.75929847  .00000216  00000+0  31684-4 0  9995
2 49742  53.2170  99.4260 0001270  81.2191 278.8945 15.08837740237208
STARLINK-3239           
1 49743U 21115V   26079.74184502 -.00000750  00000+0 -29036-4 0  9999
2 49743  53.2165  99.4384 0001232  79.7950 280.3181 15.08838476237200
STARLINK-3231           
1 49744U 21115W   26079.75656770  .00000673  00000+0  60386-4 0  9997
2 49744  53.2168  99.3336 0001209  86.6854 273.4276 15.08837179237201
STARLINK-3241           
1 49745U 21115X   26079.28921096 -.00000049  00000+0  14979-4 0  9997
2 49745  53.2168 101.5070 0000811  64.7835 295.3241 15.08835656237132
STARLINK-3233           
1 49746U 21115Y   26079.77399414  .00005251  00000+0  34736-3 0  9996
2 49746  53.2167  99.3621 0001099  72.4621 287.6491 15.08878985237207
