[{"OBJECT_NAME":"STARLINK-3251","OBJECT_ID":"2021-115F","EPOCH":"2026-03-20T11:45:11.954880","MEAN_MOTION":15.08834195,"ECCENTRICITY":0.00012458,"INCLINATION":53.2165,"RA_OF_ASC_NODE":110.522,"ARG_OF_PERICENTER":112.6876,"MEAN_ANOMALY":247.4248,"EPHEMERIS_TYPE":0,"CLASSIFICATION_TYPE":"U","NORAD_CAT_ID":49729,"ELEMENT_SET_NO":999,"REV_AT_EPOCH":23702,"BSTAR":-0.00012879215,"MEAN_MOTION_DOT":-2.337e-5,"MEAN_MOTION_DDOT":0},{"OBJECT_NAME":"STARLINK-3249","OBJECT_ID":"2021-115G","EPOCH":"2026-03-20T12:38:15.137376","MEAN_MOTION":15.0883502,"ECCENTRICITY":0.00013471,"INCLINATION":53.2165,"RA_OF_ASC_NODE":110.6644,"ARG_OF_PERICENTER":79.3946,"MEAN_ANOMALY":280.7197,"EPHEMERIS_TYPE":0,"CLASSIFICATION_TYPE":"U","NORAD_CAT_ID":49730,"ELEMENT_SET_NO":999,"REV_AT_EPOCH":23702,"BSTAR":-1.446362e-6,"MEAN_MOTION_DOT":-3.11e-6,"MEAN_MOTION_DDOT":0},{"OBJECT_NAME":"STARLINK-3246","OBJECT_ID":"2021-115J","EPOCH":"2026-03-20T19:10:23.486016","MEAN_MOTION":15.08836831,"ECCENTRICITY":0.0001293,"INCLINATION":53.2171,"RA_OF_ASC_NODE":109.4052,"ARG_OF_PERICENTER":84.6058,"MEAN_ANOMALY":275.5081,"EPHEMERIS_TYPE":0,"CLASSIFICATION_TYPE":"U","NORAD_CAT_ID":49732,"ELEMENT_SET_NO":999,"REV_AT_EPOCH":23706,"BSTAR":2.8916e-6,"MEAN_MOTION_DOT":-2.42e-6,"MEAN_MOTION_DDOT":0},{"OBJECT_NAME":"STARLINK-3252","OBJECT_ID":"2021-115K","EPOCH":"2026-03-20T18:38:33.893952","MEAN_MOTION":15.08837913,"ECCENTRICITY":0.0001304,"INCLINATION":53.2169,"RA_OF_ASC_NODE":109.3482,"ARG_OF_PERICENTER":81.1261,"MEAN_ANOMALY":278.9879,"EPHEMERIS_TYPE":0,"CLASSIFICATION_TYPE":"U","NORAD_CAT_ID":49733,"ELEMENT_SET_NO":999,"REV_AT_EPOCH":23706,"BSTAR":5.7669e-5,"MEAN_MOTION_DOT":6.3e-6,"MEAN_MOTION_DDOT":0},{"OBJECT_NAME":"STARLINK-3238","OBJECT_ID":"2021-115L","EPOCH":"2026-03-20T07:58:41.021472","MEAN_MOTION":15.08840989,"ECCENTRICITY":0.0001319,"INCLINATION":53.2167,"RA_OF_ASC_NODE":101.3697,"ARG_OF_PERICENTER":82.3242,"MEAN_ANOMALY":277.7899,"EPHEMERIS_TYPE":0,"CLASSIFICATION_TYPE":"U","NORAD_CAT_ID":49734,"ELEMENT_SET_NO":999,"REV_AT_EPOCH":23714,"BSTAR":2.7026e-5,"MEAN_MOTION_DOT":1.42e-6,"MEAN_MOTION_DDOT":0},{"OBJECT_NAME":"STARLINK-3113","OBJECT_ID":"2021-115M","EPOCH":"2026-03-20T18:27:56.887488","MEAN_MOTION":15.08837696,"ECCENTRICITY":0.0001286,"INCLINATION":53.2169,"RA_OF_ASC_NODE":109.2668,"ARG_OF_PERICENTER":89.3479,"MEAN_ANOMALY":270.7661,"EPHEMERIS_TYPE":0,"CLASSIFICATION_TYPE":"U","NORAD_CAT_ID":49735,"ELEMENT_SET_NO":999,"REV_AT_EPOCH":23706,"BSTAR":-1.7545e-5,"MEAN_MOTION_DOT":-5.67e-6,"MEAN_MOTION_DDOT":0},{"OBJECT_NAME":"STARLINK-3148","OBJECT_ID":"2021-115N","EPOCH":"2026-03-20T07:53:21.739776","MEAN_MOTION":15.08842292,"ECCENTRICITY":0.00013,"INCLINATION":53.2166,"RA_OF_ASC_NODE":101.2454,"ARG_OF_PERICENTER":88.405,"MEAN_ANOMALY":271.7091,"EPHEMERIS_TYPE":0,"CLASSIFICATION_TYPE":"U","NORAD_CAT_ID":49736,"ELEMENT_SET_NO":999,"REV_AT_EPOCH":23714,"BSTAR":2.4328e-5,"MEAN_MOTION_DOT":9.9e-7,"MEAN_MOTION_DDOT":0},{"OBJECT_NAME":"STARLINK-3225","OBJECT_ID":"2021-115P","EPOCH":"2026-03-20T11:14:46.400640","MEAN_MOTION":15.0883429,"ECCENTRICITY":0.00011639,"INCLINATION":53.2164,"RA_OF_ASC_NODE":100.7323,"ARG_OF_PERICENTER":82.8067,"MEAN_ANOMALY":277.3058,"EPHEMERIS_TYPE":0,"CLASSIFICATION_TYPE":"U","NORAD_CAT_ID":49737,"ELEMENT_SET_NO":999,"REV_AT_EPOCH":23716,"BSTAR":6.3142226e-5,"MEAN_MOTION_DOT":7.17e-6,"MEAN_MOTION_DDOT":0},{"OBJECT_NAME":"STARLINK-3143","OBJECT_ID":"2021-115Q","EPOCH":"2026-03-20T18:14:47.715936","MEAN_MOTION":15.0884515,"ECCENTRICITY":0.0001326,"INCLINATION":53.2164,"RA_OF_ASC_NODE":99.6273,"ARG_OF_PERICENTER":82.6487,"MEAN_ANOMALY":277.4655,"EPHEMERIS_TYPE":0,"CLASSIFICATION_TYPE":"U","NORAD_CAT_ID":49738,"ELEMENT_SET_NO":999,"REV_AT_EPOCH":23720,"BSTAR":0.00010686,"MEAN_MOTION_DOT":1.413e-5,"MEAN_MOTION_DDOT":0},{"OBJECT_NAME":"STARLINK-3155","OBJECT_ID":"2021-115R","EPOCH":"2026-03-20T18:54:28.113696","MEAN_MOTION":15.08837155,"ECCENTRICITY":0.0001227,"INCLINATION":53.2161,"RA_OF_ASC_NODE":109.2994,"ARG_OF_PERICENTER":86.6611,"MEAN_ANOMALY":273.4522,"EPHEMERIS_TYPE":0,"CLASSIFICATION_TYPE":"U","NORAD_CAT_ID":49739,"ELEMENT_SET_NO":999,"REV_AT_EPOCH":23706,"BSTAR":3.0379e-5,"MEAN_MOTION_DOT":1.96e-6,"MEAN_MOTION_DDOT":0},{"OBJECT_NAME":"STARLINK-3226","OBJECT_ID":"2021-115S","EPOCH":"2026-03-20T08:26:31.092000","MEAN_MOTION":15.08910455,"ECCENTRICITY":0.00012093,"INCLINATION":53.2165,"RA_OF_ASC_NODE":101.227,"ARG_OF_PERICENTER":61.0534,"MEAN_ANOMALY":299.0579,"EPHEMERIS_TYPE":0,"CLASSIFICATION_TYPE":"U","NORAD_CAT_ID":49740,"ELEMENT_SET_NO":999,"REV_AT_EPOCH":23714,"BSTAR":-0.0010769195,"MEAN_MOTION_DOT":-0.00017419,"MEAN_MOTION_DDOT":0},{"OBJECT_NAME":"STARLINK-3244","OBJECT_ID":"2021-115T","EPOCH":"2026-03-20T17:53:34.179936","MEAN_MOTION":15.0883873,"ECCENTRICITY":0.0001242,"INCLINATION":53.2165,"RA_OF_ASC_NODE":99.4992,"ARG_OF_PERICENTER":83.0686,"MEAN_ANOMALY":277.0448,"EPHEMERIS_TYPE":0,"CLASSIFICATION_TYPE":"U","NORAD_CAT_ID":49741,"ELEMENT_SET_NO":999,"REV_AT_EPOCH":23720,"BSTAR":6.6619e-6,"MEAN_MOTION_DOT":-1.82e-6,"MEAN_MOTION_DDOT":0},{"OBJECT_NAME":"STARLINK-3202","OBJECT_ID":"2021-115U","EPOCH":"2026-03-20T18:13:23.387808","MEAN_MOTION":15.0883774,"ECCENTRICITY":0.000127,"INCLINATION":53.217,"RA_OF_ASC_NODE":99.426,"ARG_OF_PERICENTER":81.2191,"MEAN_ANOMALY":278.8945,"EPHEMERIS_TYPE":0,"CLASSIFICATION_TYPE":"U","NORAD_CAT_ID":49742,"ELEMENT_SET_NO":999,"REV_AT_EPOCH":23720,"BSTAR":3.1684e-5,"MEAN_MOTION_DOT":2.16e-6,"MEAN_MOTION_DDOT":0},{"OBJECT_NAME":"STARLINK-3239","OBJECT_ID":"2021-115V","EPOCH":"2026-03-20T17:48:15.409728","MEAN_MOTION":15.08838476,"ECCENTRICITY":0.0001232,"INCLINATION":53.2165,"RA_OF_ASC_NODE":99.4384,"ARG_OF_PERICENTER":79.795,"MEAN_ANOMALY":280.3181,"EPHEMERIS_TYPE":0,"CLASSIFICATION_TYPE":"U","NORAD_CAT_ID":49743,"ELEMENT_SET_NO":999,"REV_AT_EPOCH":23720,"BSTAR":-2.9036e-5,"MEAN_MOTION_DOT":-7.5e-6,"MEAN_MOTION_DDOT":0},{"OBJECT_NAME":"STARLINK-3231","OBJECT_ID":"2021-115W","EPOCH":"2026-03-20T18:09:27.449280","MEAN_MOTION":15.08837179,"ECCENTRICITY":0.0001209,"INCLINATION":53.2168,"RA_OF_ASC_NODE":99.3336,"ARG_OF_PERICENTER":86.6854,"MEAN_ANOMALY":273.4276,"EPHEMERIS_TYPE":0,"CLASSIFICATION_TYPE":"U","NORAD_CAT_ID":49744,"ELEMENT_SET_NO":999,"REV_AT_EPOCH":23720,"BSTAR":6.0386e-5,"MEAN_MOTION_DOT":6.73e-6,"MEAN_MOTION_DDOT":0},{"OBJECT_NAME":"STARLINK-3241","OBJECT_ID":"2021-115X","EPOCH":"2026-03-20T06:56:27.826944","MEAN_MOTION":15.08835656,"ECCENTRICITY":8.11e-5,"INCLINATION":53.2168,"RA_OF_ASC_NODE":101.507,"ARG_OF_PERICENTER":64.7835,"MEAN_ANOMALY":295.3241,"EPHEMERIS_TYPE":0,"CLASSIFICATION_TYPE":"U","NORAD_CAT_ID":49745,"ELEMENT_SET_NO":999,"REV_AT_EPOCH":23713,"BSTAR":1.4979e-5,"MEAN_MOTION_DOT":-4.9e-7,"MEAN_MOTION_DDOT":0},{"OBJECT_NAME":"STARLINK-3233","OBJECT_ID":"2021-115Y","EPOCH":"2026-03-20T18:34:33.093696","MEAN_MOTION":15.08878985,"ECCENTRICITY":0.0001099,"INCLINATION":53.2167,"RA_OF_ASC_NODE":99.3621,"ARG_OF_PERICENTER":72.4621,"MEAN_ANOMALY":287.6491,"EPHEMERIS_TYPE":0,"CLASSIFICATION_TYPE":"U","NORAD_CAT_ID":49746,"ELEMENT_SET_NO":999,"REV_AT_EPOCH":23720,"BSTAR":0.00034736,"MEAN_MOTION_DOT":5.251e-5,"MEAN_MOTION_DDOT":0}]
